FLOCK 4BE-25            
1 60487U 24149V   25049.17477826  .00018069  00000+0  74554-3 0  9998
2 60487  97.4222 128.3287 0003634 165.8500 194.2840 15.24096412 28175
FLOCK 4BE-31            
1 60488U 24149W   25049.78105006  .00017793  00000+0  71538-3 0  9996
2 60488  97.4219 129.0415 0003940 171.4719 188.6586 15.24970907 28273
FLOCK 4BE-20            
1 60489U 24149X   25049.77371236  .00014510  00000+0  60464-3 0  9996
2 60489  97.4143 128.7192 0005301 171.9285 188.2039 15.23804630 28260
FLOCK 4BE-23            
1 60490U 24149Y   25049.79618715  .00012641  00000+0  53122-3 0  9992
2 60490  97.4212 128.8544 0005069 172.2729 187.8587 15.23551066 28264
FLOCK 4BE-15            
1 60491U 24149Z   25049.21413031  .00017608  00000+0  71593-3 0  9994
2 60491  97.4146 128.2426 0004491 176.3095 183.8176 15.24594003 28183
FLOCK 4BE-17            
1 60492U 24149AA  25049.17790004  .00018034  00000+0  74561-3 0  9990
2 60492  97.4221 128.3283 0004134 173.4207 186.7085 15.24025876 28174
NUSAT-50 (NANCY ROMAN)  
1 60493U 24149AB  25049.75056814  .00015862  00000+0  65115-3 0  9990
2 60493  97.4201 128.8868 0004785 173.3168 186.8134 15.24291372 28266
FLOCK 4BE-22            
1 60494U 24149AC  25049.21002241  .00018913  00000+0  77108-3 0  9992
2 60494  97.4164 128.2865 0005548 183.7829 176.3367 15.24481533 28186
FLOCK 4BE-34            
1 60495U 24149AD  25049.48957423  .00015045  00000+0  59795-3 0  9998
2 60495  97.4211 128.6484 0005106 188.8235 171.2914 15.25389378 28220
TYCHE                   
1 60496U 24149AE  25049.83997766  .00008605  00000+0  38410-3 0  9997
2 60496  97.4201 128.6079 0004762 179.9446 180.1791 15.21603700 28251
FLOCK 4BE-32            
1 60497U 24149AF  25049.17652534  .00019612  00000+0  78948-3 0  9996
2 60497  97.4148 128.2964 0004952 178.5538 181.5715 15.24905139 28186
NUSAT-48 (HENRIETTA LE*)
1 60498U 24149AG  25049.47947976  .00018341  00000+0  75186-3 0  9996
2 60498  97.4169 128.5566 0005330 185.7242 174.3935 15.24304637 28229
FLOCK 4BE-30            
1 60499U 24149AH  25049.18499877  .00019893  00000+0  80389-3 0  9991
2 60499  97.4224 128.4723 0003683 179.1611 180.9634 15.24777118 27565
NUSAT-49 (KLARA DAN VO*)
1 60500U 24149AJ  25049.21430440  .00018007  00000+0  73856-3 0  9996
2 60500  97.4197 128.3718 0004456 178.8730 181.2518 15.24294542 28186
FLOCK 4BE-11            
1 60501U 24149AK  25049.18391882  .00022087  00000+0  88727-3 0  9995
2 60501  97.4149 128.2883 0005326 189.9886 170.1247 15.24947832 28181
FLOCK 4BE-33            
1 60502U 24149AL  25049.74446296  .00014376  00000+0  59442-3 0  9992
2 60502  97.4161 128.7937 0005512 190.7091 169.4030 15.24068616 28260
FLOCK 4BE-10            
1 60503U 24149AM  25049.66991851  .00014573  00000+0  59931-3 0  9998
2 60503  97.4210 128.8763 0003972 183.7939 176.3269 15.24253606 28250
YAM-7                   
1 60504U 24149AN  25049.48273675  .00012896  00000+0  55268-3 0  9991
2 60504  97.4215 128.4914 0003898 187.0135 173.1048 15.22885844 28211
FLOCK 4BE-24            
1 60505U 24149AP  25049.80052364  .00015915  00000+0  63598-3 0  9998
2 60505  97.4147 128.9905 0005262 197.4605 162.6453 15.25194551 28286
LUR-1                   
1 60506U 24149AQ  25049.19617739  .00008698  00000+0  38337-3 0  9997
2 60506  97.4192 128.0642 0004199 197.6838 162.4253 15.22037518 28163
TANAGER-1               
1 60507U 24149AR  25049.61944304  .00028464  00000+0  62788-3 0  9996
2 60507  97.4209 131.6233 0010019 226.8047 133.2364 15.43812445 28436
EAGLEEYE                
1 60508U 24149AS  25049.49124846  .00028951  00000+0  10457-2 0  9990
2 60508  97.4172 129.1394 0004513 197.3884 162.7201 15.28426792 28266
FLOCK 4BE-29            
1 60509U 24149AT  25049.77410572  .00027793  00000+0  10881-2 0  9990
2 60509  97.4218 129.2135 0003330 208.4028 151.7029 15.25769902 28280
2024-149AU              
1 60510U 24149AU  25049.48172571  .00019386  00000+0  77895-3 0  9992
2 60510  97.4164 128.6854 0004621 201.7365 158.3677 15.24970281 28237
FLOCK 4BE-2             
1 60511U 24149AV  25049.21564756  .00024129  00000+0  93687-3 0  9992
2 60511  97.4233 128.7500 0003434 203.4834 156.6248 15.26074847 28202
FLOCK 4BE-13            
1 60512U 24149AW  25049.19105336  .00020706  00000+0  81835-3 0  9994
2 60512  97.4142 128.4156 0004983 199.4832 160.6216 15.25508687 28199
FLOCK 4BE-27            
1 60513U 24149AX  25049.15554120  .00017011  00000+0  71115-3 0  9995
2 60513  97.4235 128.3743 0004641 213.1076 146.9871 15.23663206 28178
FLOCK 4BE-9             
1 60514U 24149AY  25049.20859576  .00017929  00000+0  72305-3 0  9995
2 60514  97.4211 128.5578 0003811 208.9863 151.1164 15.24866009 28197
FLOCK 4BE-8             
1 60515U 24149AZ  25049.16322477  .00018764  00000+0  76261-3 0  9999
2 60515  97.4162 128.3381 0005363 208.3049 151.7898 15.24590646 28187
FLOCK 4BE-6             
1 60516U 24149BA  25049.49790816  .00018178  00000+0  74248-3 0  9994
2 60516  97.4217 128.7997 0004449 210.0986 149.9996 15.24434248 28239
FLOCK 4BE-14            
1 60517U 24149BB  25049.18032814  .00017938  00000+0  72168-3 0  9990
2 60517  97.4152 128.4660 0006049 209.6457 150.4439 15.24937349 28191
FLOCK 4BE-1             
1 60518U 24149BC  25049.48346540  .00016984  00000+0  67160-3 0  9994
2 60518  97.4206 128.9424 0004843 211.8373 148.2573 15.25534271 28245
FLOCK 4BE-28            
1 60519U 24149BD  25049.21320266  .00021947  00000+0  85562-3 0  9994
2 60519  97.4167 128.6072 0005719 216.3204 143.7647 15.25949791 28209
IPERDRONE.0             
1 60520U 24149BE  25049.75993407  .00021185  00000+0  76221-3 0  9994
2 60520  97.4192 129.5843 0006113 197.9158 162.1867 15.28611667 28318
2024-149BF              
1 60521U 24149BF  25049.18560480  .00029410  00000+0  10286-2 0  9990
2 60521  97.4208 129.1742 0005621 203.3035 156.7951 15.29473695 28232
CONNECTA IOT-2          
1 60522U 24149BG  25049.72483320  .00009865  00000+0  41537-3 0  9994
2 60522  97.4232 128.9739 0006074 210.9673 149.1207 15.23545513 28264
PTD-R (TYVAK-0127)      
1 60523U 24149BH  25049.78177062  .00033442  00000+0  10892-2 0  9991
2 60523  97.4158 129.9378 0006669 202.8575 157.2371 15.31749107 28348
CONNECTA IOT-4          
1 60524U 24149BJ  25049.20192907  .00021613  00000+0  88663-3 0  9993
2 60524  97.4199 128.3605 0007717 212.7187 147.3573 15.24232874 28180
ORESAT0.5               
1 60525U 24149BK  25049.21453013  .00021583  00000+0  82774-3 0  9996
2 60525  97.4140 128.6790 0007467 204.4516 155.6369 15.26489511 28214
DEIMOS                  
1 60526U 24149BL  25049.48894505  .00021062  00000+0  81342-3 0  9993
2 60526  97.4200 129.0706 0007503 209.2354 150.8466 15.26260860 28251
CUAVA-2                 
1 60527U 24149BM  25049.74500566  .00008724  00000+0  36689-3 0  9998
2 60527  97.4159 128.9261 0008019 199.0497 161.0441 15.23611841 28271
ERNST                   
1 60528U 24149BN  25049.16752990  .00018116  00000+0  73932-3 0  9993
2 60528  97.4222 128.4697 0007533 213.3614 146.7149 15.24446300 28184
GAINDESAT-1A            
1 60529U 24149BP  25049.69132209  .00039432  00000+0  12317-2 0  9990
2 60529  97.4205 130.2058 0007100 206.1349 153.9536 15.33050168 28344
TORO                    
1 60530U 24149BQ  25049.75882748  .00005095  00000+0  49018-3 0  9996
2 60530  97.7250 127.9971 0001522 105.2064 254.9324 14.93419558 27726
HYPSO-2                 
1 60531U 24149BR  25049.15796098  .00008250  00000+0  77060-3 0  9997
2 60531  97.7257 127.5550 0001922 121.0047 239.1362 14.94412157 27641
LEMU NGE                
1 60532U 24149BS  25049.19020411  .00005604  00000+0  53351-3 0  9998
2 60532  97.7284 127.5754 0001330 145.3310 214.7997 14.93799371 27641
LEMUR-2-STELLA          
1 60533U 24149BT  25049.48654050  .00018645  00000+0  15599-2 0  9993
2 60533  97.7223 128.4538 0002417 149.2753 210.8612 14.98512493 27730
SATELIOT_2              
1 60534U 24149BU  25049.73474963  .00005094  00000+0  48742-3 0  9996
2 60534  97.7272 128.0815 0000586 101.7810 258.3476 14.93642067 27732
NIGHTJAR                
1 60535U 24149BV  25049.46972240  .00008130  00000+0  75539-3 0  9996
2 60535  97.7286 128.0118 0000141  91.0479 269.0758 14.94627587 70509
LEMUR-2-MARHISYAM       
1 60536U 24149BW  25049.50057264  .00018088  00000+0  15197-2 0  9998
2 60536  97.7223 128.3853 0002143 147.8136 212.3217 14.98355890 27731
SATELIOT_4              
1 60537U 24149BX  25049.17968823  .00004438  00000+0  42397-3 0  9991
2 60537  97.7193 127.3749 0001817 173.2008 186.9237 14.93772502 27645
2024-149BY              
1 60538U 24149BY  25049.14307524  .00011265  00000+0  10020-2 0  9997
2 60538  97.7262 127.9265 0001260 229.9444 130.1667 14.96247709 27172
ICEYE-X43               
1 60539U 24149BZ  25049.72124453  .00003460  00000+0  31868-3 0  9992
2 60539  97.7223 128.2763 0002607 233.8843 126.2136 14.95369245 27749
HAWK-10A                
1 60540U 24149CA  25049.79632601  .00002569  00000+0  24614-3 0  9990
2 60540  97.7333 128.4590 0002662 235.0336 125.0634 14.94031302 27744
UMBRA-09                
1 60541U 24149CB  25049.76244323  .00018109  00000+0  14298-2 0  9991
2 60541  97.7275 129.2516 0002203 311.7736  48.3299 15.00750298 27805
QPS-SAR-8 (AMATERU-IV)  
1 60542U 24149CC  25049.48222315  .00011919  00000+0  10432-2 0  9996
2 60542  97.7244 128.3616 0002990 244.6097 115.4815 14.96863988 27726
ARCTIC WEATHER SATELLITE
1 60543U 24149CD  25049.23096616  .00002964  00000+0  31500-3 0  9993
2 60543  97.7276 127.0406 0000876 266.0453  94.0664 14.89747460 27249
CAPELLA-15 (ACADIA-5)   
1 60544U 24149CE  25049.78284983  .00008881  00000+0  87033-3 0  9996
2 60544  97.7227 128.3439 0006883 238.3086 121.7463 14.92466718 27753
HAWK-10B                
1 60545U 24149CF  25049.79619783  .00003201  00000+0  30531-3 0  9990
2 60545  97.7260 128.2744 0004449 264.3720  95.6993 14.94035353 27744
